[ {"OBJECT_NAME": "SL-16 R/B", "OBJECT_ID": "1990-046B", "EPOCH": "2026-04-05T20:13:39.702432", "MEAN_MOTION": 14.15019412, "ECCENTRICITY": 0.00165939, "INCLINATION": 70.9989, "RA_OF_ASC_NODE": 240.8822, "ARG_OF_PERICENTER": 264.4304, "MEAN_ANOMALY": 95.4926, "EPHEMERIS_TYPE": 0, "CLASSIFICATION_TYPE": "U", "NORAD_CAT_ID": 20625, "ELEMENT_SET_NO": 999, "REV_AT_EPOCH": 85223, "BSTAR": 1.3464722e-05, "MEAN_MOTION_DOT": -2.2e-07, "MEAN_MOTION_DDOT": 0}, {"OBJECT_NAME": "COSMOS 2084", "OBJECT_ID": "1990-055A", "EPOCH": "2026-04-05T19:37:26.382144", "MEAN_MOTION": 15.05824535, "ECCENTRICITY": 0.00127124, "INCLINATION": 62.7899, "RA_OF_ASC_NODE": 243.0394, "ARG_OF_PERICENTER": 199.4233, "MEAN_ANOMALY": 160.6385, "EPHEMERIS_TYPE": 0, "CLASSIFICATION_TYPE": "U", "NORAD_CAT_ID": 20663, "ELEMENT_SET_NO": 999, "REV_AT_EPOCH": 94040, "BSTAR": 0.00027279683, "MEAN_MOTION_DOT": 3.783e-05, "MEAN_MOTION_DDOT": 0}, {"OBJECT_NAME": "SL-6 R/B(2)", "OBJECT_ID": "1990-055D", "EPOCH": "2026-04-06T05:40:41.602368", "MEAN_MOTION": 15.03736393, "ECCENTRICITY": 0.00292988, "INCLINATION": 62.7824, "RA_OF_ASC_NODE": 160.1641, "ARG_OF_PERICENTER": 353.1852, "MEAN_ANOMALY": 6.8844, "EPHEMERIS_TYPE": 0, "CLASSIFICATION_TYPE": "U", "NORAD_CAT_ID": 20666, "ELEMENT_SET_NO": 999, "REV_AT_EPOCH": 94233, "BSTAR": 0.00018621232, "MEAN_MOTION_DOT": 2.387e-05, "MEAN_MOTION_DDOT": 0}, {"OBJECT_NAME": "SL-8 R/B", "OBJECT_ID": "1990-078B", "EPOCH": "2026-04-05T17:10:11.791200", "MEAN_MOTION": 14.8987357, "ECCENTRICITY": 0.0357348, "INCLINATION": 82.9045, "RA_OF_ASC_NODE": 226.9868, "ARG_OF_PERICENTER": 282.7694, "MEAN_ANOMALY": 73.3819, "EPHEMERIS_TYPE": 0, "CLASSIFICATION_TYPE": "U", "NORAD_CAT_ID": 20775, "ELEMENT_SET_NO": 999, "REV_AT_EPOCH": 81332, "BSTAR": 0.00041366132, "MEAN_MOTION_DOT": 0.00013975, "MEAN_MOTION_DDOT": 0}, {"OBJECT_NAME": "SL-8 R/B", "OBJECT_ID": "1991-006B", "EPOCH": "2026-04-06T05:26:21.993216", "MEAN_MOTION": 13.77499153, "ECCENTRICITY": 0.00213473, "INCLINATION": 82.9431, "RA_OF_ASC_NODE": 149.5717, "ARG_OF_PERICENTER": 320.928, "MEAN_ANOMALY": 102.3533, "EPHEMERIS_TYPE": 0, "CLASSIFICATION_TYPE": "U", "NORAD_CAT_ID": 21088, "ELEMENT_SET_NO": 999, "REV_AT_EPOCH": 76786, "BSTAR": 0.00010681992, "MEAN_MOTION_DOT": 1.21e-06, "MEAN_MOTION_DDOT": 0}, {"OBJECT_NAME": "OKEAN-3", "OBJECT_ID": "1991-039A", "EPOCH": "2026-04-06T01:46:03.961344", "MEAN_MOTION": 15.04980288, "ECCENTRICITY": 0.00130272, "INCLINATION": 82.5152, "RA_OF_ASC_NODE": 310.3074, "ARG_OF_PERICENTER": 235.4951, "MEAN_ANOMALY": 124.5046, "EPHEMERIS_TYPE": 0, "CLASSIFICATION_TYPE": "U", "NORAD_CAT_ID": 21397, "ELEMENT_SET_NO": 999, "REV_AT_EPOCH": 86915, "BSTAR": 0.00026530076, "MEAN_MOTION_DOT": 3.795e-05, "MEAN_MOTION_DDOT": 0}, {"OBJECT_NAME": "COSMOS 2151", "OBJECT_ID": "1991-042A", "EPOCH": "2026-04-06T03:56:25.323072", "MEAN_MOTION": 15.00237343, "ECCENTRICITY": 0.00115817, "INCLINATION": 82.4966, "RA_OF_ASC_NODE": 57.1664, "ARG_OF_PERICENTER": 334.6578, "MEAN_ANOMALY": 25.4077, "EPHEMERIS_TYPE": 0, "CLASSIFICATION_TYPE": "U", "NORAD_CAT_ID": 21422, "ELEMENT_SET_NO": 999, "REV_AT_EPOCH": 86731, "BSTAR": 0.00026352435, "MEAN_MOTION_DOT": 3.326e-05, "MEAN_MOTION_DDOT": 0}, {"OBJECT_NAME": "SL-14 R/B", "OBJECT_ID": "1991-042B", "EPOCH": "2026-04-06T05:46:19.534368", "MEAN_MOTION": 14.81859452, "ECCENTRICITY": 0.00178921, "INCLINATION": 82.4961, "RA_OF_ASC_NODE": 194.3545, "ARG_OF_PERICENTER": 146.6324, "MEAN_ANOMALY": 213.6022, "EPHEMERIS_TYPE": 0, "CLASSIFICATION_TYPE": "U", "NORAD_CAT_ID": 21423, "ELEMENT_SET_NO": 999, "REV_AT_EPOCH": 85715, "BSTAR": 7.0336947e-05, "MEAN_MOTION_DOT": 5.81e-06, "MEAN_MOTION_DDOT": 0}, {"OBJECT_NAME": "ERS-1", "OBJECT_ID": "1991-050A", "EPOCH": "2026-04-06T00:21:32.930208", "MEAN_MOTION": 14.39472069, "ECCENTRICITY": 0.00329806, "INCLINATION": 98.7857, "RA_OF_ASC_NODE": 114.9341, "ARG_OF_PERICENTER": 120.3766, "MEAN_ANOMALY": 240.0689, "EPHEMERIS_TYPE": 0, "CLASSIFICATION_TYPE": "U", "NORAD_CAT_ID": 21574, "ELEMENT_SET_NO": 999, "REV_AT_EPOCH": 81966, "BSTAR": 0.00015253251, "MEAN_MOTION_DOT": 4.32e-06, "MEAN_MOTION_DDOT": 0}, {"OBJECT_NAME": "ARIANE 40 R/B", "OBJECT_ID": "1991-050F", "EPOCH": "2026-04-06T03:21:02.181312", "MEAN_MOTION": 14.42915394, "ECCENTRICITY": 0.00030278, "INCLINATION": 98.1955, "RA_OF_ASC_NODE": 147.3382, "ARG_OF_PERICENTER": 16.3, "MEAN_ANOMALY": 343.8287, "EPHEMERIS_TYPE": 0, "CLASSIFICATION_TYPE": "U", "NORAD_CAT_ID": 21610, "ELEMENT_SET_NO": 999, "REV_AT_EPOCH": 82295, "BSTAR": 0.00013658081, "MEAN_MOTION_DOT": 4.15e-06, "MEAN_MOTION_DDOT": 0}, {"OBJECT_NAME": "INTERCOSMOS 25", "OBJECT_ID": "1991-086A", "EPOCH": "2026-04-06T01:29:52.643040", "MEAN_MOTION": 12.12099264, "ECCENTRICITY": 0.1486223, "INCLINATION": 82.6, "RA_OF_ASC_NODE": 293.4575, "ARG_OF_PERICENTER": 57.9541, "MEAN_ANOMALY": 315.7294, "EPHEMERIS_TYPE": 0, "CLASSIFICATION_TYPE": "U", "NORAD_CAT_ID": 21819, "ELEMENT_SET_NO": 999, "REV_AT_EPOCH": 50000, "BSTAR": 0.00035733779, "MEAN_MOTION_DOT": 1.852e-05, "MEAN_MOTION_DDOT": 0}, {"OBJECT_NAME": "SL-8 R/B", "OBJECT_ID": "1992-008B", "EPOCH": "2026-04-05T18:46:54.054048", "MEAN_MOTION": 13.75969942, "ECCENTRICITY": 0.00357252, "INCLINATION": 82.9245, "RA_OF_ASC_NODE": 247.6195, "ARG_OF_PERICENTER": 60.2815, "MEAN_ANOMALY": 50.5003, "EPHEMERIS_TYPE": 0, "CLASSIFICATION_TYPE": "U", "NORAD_CAT_ID": 21876, "ELEMENT_SET_NO": 999, "REV_AT_EPOCH": 71314, "BSTAR": 1.9362869e-05, "MEAN_MOTION_DOT": 3.4e-07, "MEAN_MOTION_DDOT": 0}, {"OBJECT_NAME": "SL-8 R/B", "OBJECT_ID": "1992-020B", "EPOCH": "2026-04-06T02:35:42.097632", "MEAN_MOTION": 13.75550734, "ECCENTRICITY": 0.00281362, "INCLINATION": 82.9288, "RA_OF_ASC_NODE": 133.4018, "ARG_OF_PERICENTER": 218.8937, "MEAN_ANOMALY": 168.7226, "EPHEMERIS_TYPE": 0, "CLASSIFICATION_TYPE": "U", "NORAD_CAT_ID": 21938, "ELEMENT_SET_NO": 999, "REV_AT_EPOCH": 70490, "BSTAR": -8.64424e-07, "MEAN_MOTION_DOT": 1.4e-07, "MEAN_MOTION_DDOT": 0}, {"OBJECT_NAME": "USA 81", "OBJECT_ID": "1992-023A", "EPOCH": "2026-04-06T02:42:26.176608", "MEAN_MOTION": 14.32377522, "ECCENTRICITY": 0.0001465, "INCLINATION": 85.0038, "RA_OF_ASC_NODE": 115.6131, "ARG_OF_PERICENTER": 71.6769, "MEAN_ANOMALY": 288.4583, "EPHEMERIS_TYPE": 0, "CLASSIFICATION_TYPE": "U", "NORAD_CAT_ID": 21949, "ELEMENT_SET_NO": 999, "REV_AT_EPOCH": 9871, "BSTAR": 6.8475108e-05, "MEAN_MOTION_DOT": 2.05e-06, "MEAN_MOTION_DDOT": 0}, {"OBJECT_NAME": "COSMOS 2219", "OBJECT_ID": "1992-076A", "EPOCH": "2026-04-06T00:54:52.801632", "MEAN_MOTION": 14.14088418, "ECCENTRICITY": 0.00176137, "INCLINATION": 71.0603, "RA_OF_ASC_NODE": 320.9018, "ARG_OF_PERICENTER": 165.3212, "MEAN_ANOMALY": 194.8425, "EPHEMERIS_TYPE": 0, "CLASSIFICATION_TYPE": "U", "NORAD_CAT_ID": 22219, "ELEMENT_SET_NO": 999, "REV_AT_EPOCH": 72224, "BSTAR": -4.8287977e-05, "MEAN_MOTION_DOT": -1.39e-06, "MEAN_MOTION_DDOT": 0}, {"OBJECT_NAME": "SL-16 R/B", "OBJECT_ID": "1992-076B", "EPOCH": "2026-04-06T05:33:45.600192", "MEAN_MOTION": 14.16862581, "ECCENTRICITY": 0.00110147, "INCLINATION": 70.998, "RA_OF_ASC_NODE": 130.3599, "ARG_OF_PERICENTER": 45.96, "MEAN_ANOMALY": 22.0771, "EPHEMERIS_TYPE": 0, "CLASSIFICATION_TYPE": "U", "NORAD_CAT_ID": 22220, "ELEMENT_SET_NO": 999, "REV_AT_EPOCH": 72573, "BSTAR": 9.27329e-06, "MEAN_MOTION_DOT": -2.9e-07, "MEAN_MOTION_DDOT": 0}]