SL-16 R/B               
1 20625U 90046B   26095.84282063 -.00000022  00000+0  13465-4 0  9996
2 20625  70.9989 240.8822 0016593 264.4304  95.4926 14.15019412852235
COSMOS 2084             
1 20663U 90055A   26095.81766646  .00003783  00000+0  27280-3 0  9994
2 20663  62.7899 243.0394 0012712 199.4233 160.6385 15.05824535940403
SL-6 R/B(2)             
1 20666U 90055D   26096.23659262  .00002387  00000+0  18621-3 0  9997
2 20666  62.7824 160.1641 0029298 353.1852   6.8844 15.03736393942338
SL-8 R/B                
1 20775U 90078B   26095.71541425  .00013975  00000+0  41366-3 0  9993
2 20775  82.9045 226.9868 0357348 282.7694  73.3819 14.89873570813320
SL-8 R/B                
1 21088U 91006B   26096.22664344  .00000121  00000+0  10682-3 0  9992
2 21088  82.9431 149.5717 0021347 320.9280 102.3533 13.77499153767863
OKEAN-3                 
1 21397U 91039A   26096.07365696  .00003795  00000+0  26530-3 0  9991
2 21397  82.5152 310.3074 0013027 235.4951 124.5046 15.04980288869153
COSMOS 2151             
1 21422U 91042A   26096.16418198  .00003326  00000+0  26352-3 0  9992
2 21422  82.4966  57.1664 0011581 334.6578  25.4077 15.00237343867317
SL-14 R/B               
1 21423U 91042B   26096.24050387  .00000581  00000+0  70337-4 0  9997
2 21423  82.4961 194.3545 0017892 146.6324 213.6022 14.81859452857157
ERS-1                   
1 21574U 91050A   26096.01496447  .00000432  00000+0  15253-3 0  9999
2 21574  98.7857 114.9341 0032980 120.3766 240.0689 14.39472069819669
ARIANE 40 R/B           
1 21610U 91050F   26096.13960858  .00000415  00000+0  13658-3 0  9993
2 21610  98.1955 147.3382 0003027  16.3000 343.8287 14.42915394822952
INTERCOSMOS 25          
1 21819U 91086A   26096.06241485  .00001852  00000+0  35734-3 0  9998
2 21819  82.6000 293.4575 1486223  57.9541 315.7294 12.12099264500003
SL-8 R/B                
1 21876U 92008B   26095.78257007  .00000034  00000+0  19363-4 0  9993
2 21876  82.9245 247.6195 0035725  60.2815  50.5003 13.75969942713148
SL-8 R/B                
1 21938U 92020B   26096.10812613  .00000014  00000+0 -86442-6 0  9996
2 21938  82.9288 133.4018 0028136 218.8937 168.7226 13.75550734704902
USA 81                  
1 21949U 92023A   26096.11280297  .00000205  00000+0  68475-4 0  9994
2 21949  85.0038 115.6131 0001465  71.6769 288.4583 14.32377522 98710
COSMOS 2219             
1 22219U 92076A   26096.03811113 -.00000139  00000+0 -48288-4 0  9999
2 22219  71.0603 320.9018 0017613 165.3212 194.8425 14.14088418722245
SL-16 R/B               
1 22220U 92076B   26096.23177778 -.00000029  00000+0  92733-5 0  9997
2 22220  70.9980 130.3599 0011014  45.9600  22.0771 14.16862581725739
